IDEFIX & ARIANE 42P R/B 
1 27422U 02021B   26042.83506780  .00000333  00000+0  14306-3 0  9998
2 27422  98.5842 341.7547 0010646 263.8602  96.1368 14.31007486240328
AQUA                    
1 27424U 02022A   26043.22294147  .00001220  00000+0  25371-3 0  9996
2 27424  98.4126  10.1336 0001391  50.6537   5.2643 14.61913355265017
CZ-4B R/B               
1 27432U 02024C   26043.10560711  .00000051  00000+0  48798-4 0  9997
2 27432  98.8898  96.6339 0051193  95.7409 285.5115 14.14542997225629
MIDORI II (ADEOS-II)    
1 27597U 02056A   26042.90175885  .00000375  00000+0  16544-3 0  9997
2 27597  98.7721   1.2090 0002174  78.8272 281.3154 14.29265684206612
H-2A R/B                
1 27601U 02056E   26042.95208443  .00000349  00000+0  13714-3 0  9992
2 27601  98.3153   4.3049 0069123 237.8424 164.1912 14.33742628210421
CZ-4B R/B               
1 28059U 03049C   26042.93925076  .00000559  00000+0  13982-3 0  9999
2 28059  98.6851  36.8397 0047315 311.3092  48.4035 14.54992200182852
CZ-2C R/B               
1 28222U 04012C   26043.12757859  .00052475  00000+0  60667-3 0  9992
2 28222  97.7300 106.0521 0015555  48.4261 311.8326 15.61574827200287
SL-16 R/B               
1 28353U 04021B   26043.07120360  .00000254  00000+0  15697-3 0  9993
2 28353  70.9994 286.2579 0003057  73.5276 286.6182 14.14591499119219
CZ-4B R/B               
1 28415U 04035C   26043.05560587  .00009254  00000+0  32971-3 0  9997
2 28415  97.3547  77.6100 0033961  61.2502 299.2143 15.28585904175994
CZ-2C R/B               
1 28480U 04046B   26043.17257822  .00000139  00000+0  67177-4 0  9999
2 28480  98.1994 319.7416 0138398 230.0555 128.8402 14.26983284104868
ARIANE 5 R/B            
1 28499U 04049H   26043.03224885  .00001111  00000+0  12841-3 0  9998
2 28499  98.2585 210.5367 0085452  74.5407 286.5224 14.85214461141984
CZ-2D R/B               
1 28738U 05024B   26043.03387144  .00040423  00000+0  54098-3 0  9995
2 28738  97.3618  57.2859 0007609 107.7875 252.4211 15.57880867135783
